DELTA 2 R/B(1)          
1 20453U 90008B   26044.15762871  .00068684  00000+0  89552-3 0  9997
2 20453  35.6054 335.4253 0091916  29.4618 331.1256 15.52564202922310
COSMOS 2058             
1 20465U 90010A   26044.14883845  .00004428  00000+0  26249-3 0  9997
2 20465  82.4652  71.6046 0011620  65.3337 294.9102 15.11091829938539
SL-14 R/B               
1 20466U 90010B   26044.13618189  .00000449  00000+0  51490-4 0  9990
2 20466  82.5022 290.4545 0020498  24.9097 335.3103 14.83547566924846
SL-14 R/B               
1 20511U 90018B   26044.06279966  .00000458  00000+0  54484-4 0  9993
2 20511  82.5180 246.1129 0016541 168.2198 191.9407 14.82118205918935
HST                     
1 20580U 90037B   26043.75278737  .00007384  00000+0  24627-3 0  9990
2 20580  28.4659 210.0598 0001586 182.7138 177.3449 15.29077790769493
SL-16 R/B               
1 20625U 90046B   26044.23785112  .00000337  00000+0  19853-3 0  9990
2 20625  71.0011 349.2645 0014990 333.7702  26.2660 14.15009037844938
COSMOS 2084             
1 20663U 90055A   26044.21363141  .00002697  00000+0  19986-3 0  9992
2 20663  62.7896  59.0464 0020931 184.7755 175.3149 15.05488662932635
SL-6 R/B(2)             
1 20666U 90055D   26044.22965687  .00002816  00000+0  21932-3 0  9996
2 20666  62.7847 337.0224 0021088 340.3168  19.7115 15.03469431934513
SL-8 R/B                
1 20775U 90078B   26044.10871965  .00015053  00000+0  44241-3 0  9999
2 20775  82.9021 273.4029 0366636  96.3520 267.9581 14.88241385805642
SL-8 R/B                
1 21088U 91006B   26043.87599110  .00000031  00000+0  15586-4 0  9992
2 21088  82.9440 188.4930 0023743 104.3983  59.6620 13.77492232760650
OKEAN-3                 
1 21397U 91039A   26044.27355835  .00004317  00000+0  30471-3 0  9990
2 21397  82.5177   0.4891 0016337  57.2104 303.0694 15.04608538861364
COSMOS 2151             
1 21422U 91042A   26044.26893680  .00001893  00000+0  14984-3 0  9994
2 21422  82.4957 107.2348 0013591 137.3299 222.8983 15.00011859859530
