CCSDS_OMM_VERS = 2.0
CREATION_DATE  = 
ORIGINATOR     = 

OBJECT_NAME    = DELTA 2 R/B(1)
OBJECT_ID      = 1990-008B
CENTER_NAME    = EARTH
REF_FRAME      = TEME
TIME_SYSTEM    = UTC
MEAN_ELEMENT_THEORY = SGP/SGP4

EPOCH          = 2026-02-13T03:46:59.120544
MEAN_MOTION    = 15.52564202
ECCENTRICITY   = .00919169
INCLINATION    = 35.6054
RA_OF_ASC_NODE = 335.4253
ARG_OF_PERICENTER = 29.4618
MEAN_ANOMALY   = 331.1256

EPHEMERIS_TYPE = 0
CLASSIFICATION_TYPE = U
NORAD_CAT_ID   = 20453
ELEMENT_SET_NO = 999
REV_AT_EPOCH   = 92231
BSTAR          = .89552388E-3
MEAN_MOTION_DOT = .68684E-3
MEAN_MOTION_DDOT = 0

CCSDS_OMM_VERS = 2.0
CREATION_DATE  = 
ORIGINATOR     = 

OBJECT_NAME    = COSMOS 2058
OBJECT_ID      = 1990-010A
CENTER_NAME    = EARTH
REF_FRAME      = TEME
TIME_SYSTEM    = UTC
MEAN_ELEMENT_THEORY = SGP/SGP4

EPOCH          = 2026-02-13T03:34:19.642080
MEAN_MOTION    = 15.11091829
ECCENTRICITY   = .00116207
INCLINATION    = 82.4652
RA_OF_ASC_NODE = 71.6046
ARG_OF_PERICENTER = 65.3337
MEAN_ANOMALY   = 294.9102

EPHEMERIS_TYPE = 0
CLASSIFICATION_TYPE = U
NORAD_CAT_ID   = 20465
ELEMENT_SET_NO = 999
REV_AT_EPOCH   = 93853
BSTAR          = .26248931E-3
MEAN_MOTION_DOT = .4428E-4
MEAN_MOTION_DDOT = 0

CCSDS_OMM_VERS = 2.0
CREATION_DATE  = 
ORIGINATOR     = 

OBJECT_NAME    = SL-14 R/B
OBJECT_ID      = 1990-010B
CENTER_NAME    = EARTH
REF_FRAME      = TEME
TIME_SYSTEM    = UTC
MEAN_ELEMENT_THEORY = SGP/SGP4

EPOCH          = 2026-02-13T03:16:06.115296
MEAN_MOTION    = 14.83547566
ECCENTRICITY   = .0020498
INCLINATION    = 82.5022
RA_OF_ASC_NODE = 290.4545
ARG_OF_PERICENTER = 24.9097
MEAN_ANOMALY   = 335.3103

EPHEMERIS_TYPE = 0
CLASSIFICATION_TYPE = U
NORAD_CAT_ID   = 20466
ELEMENT_SET_NO = 999
REV_AT_EPOCH   = 92484
BSTAR          = .5149016E-4
MEAN_MOTION_DOT = .449E-5
MEAN_MOTION_DDOT = 0

CCSDS_OMM_VERS = 2.0
CREATION_DATE  = 
ORIGINATOR     = 

OBJECT_NAME    = SL-14 R/B
OBJECT_ID      = 1990-018B
CENTER_NAME    = EARTH
REF_FRAME      = TEME
TIME_SYSTEM    = UTC
MEAN_ELEMENT_THEORY = SGP/SGP4

EPOCH          = 2026-02-13T01:30:25.890624
MEAN_MOTION    = 14.82118205
ECCENTRICITY   = .00165416
INCLINATION    = 82.5180
RA_OF_ASC_NODE = 246.1129
ARG_OF_PERICENTER = 168.2198
MEAN_ANOMALY   = 191.9407

EPHEMERIS_TYPE = 0
CLASSIFICATION_TYPE = U
NORAD_CAT_ID   = 20511
ELEMENT_SET_NO = 999
REV_AT_EPOCH   = 91893
BSTAR          = .54484499E-4
MEAN_MOTION_DOT = .458E-5
MEAN_MOTION_DDOT = 0

CCSDS_OMM_VERS = 2.0
CREATION_DATE  = 
ORIGINATOR     = 

OBJECT_NAME    = HST
OBJECT_ID      = 1990-037B
CENTER_NAME    = EARTH
REF_FRAME      = TEME
TIME_SYSTEM    = UTC
MEAN_ELEMENT_THEORY = SGP/SGP4

EPOCH          = 2026-02-12T18:04:00.828768
MEAN_MOTION    = 15.29077790
ECCENTRICITY   = .00015861
INCLINATION    = 28.4659
RA_OF_ASC_NODE = 210.0598
ARG_OF_PERICENTER = 182.7138
MEAN_ANOMALY   = 177.3449

EPHEMERIS_TYPE = 0
CLASSIFICATION_TYPE = U
NORAD_CAT_ID   = 20580
ELEMENT_SET_NO = 999
REV_AT_EPOCH   = 76949
BSTAR          = .24626644E-3
MEAN_MOTION_DOT = .7384E-4
MEAN_MOTION_DDOT = 0

CCSDS_OMM_VERS = 2.0
CREATION_DATE  = 
ORIGINATOR     = 

OBJECT_NAME    = SL-16 R/B
OBJECT_ID      = 1990-046B
CENTER_NAME    = EARTH
REF_FRAME      = TEME
TIME_SYSTEM    = UTC
MEAN_ELEMENT_THEORY = SGP/SGP4

EPOCH          = 2026-02-13T05:42:30.336768
MEAN_MOTION    = 14.15009037
ECCENTRICITY   = .00149904
INCLINATION    = 71.0011
RA_OF_ASC_NODE = 349.2645
ARG_OF_PERICENTER = 333.7702
MEAN_ANOMALY   = 26.2660

EPHEMERIS_TYPE = 0
CLASSIFICATION_TYPE = U
NORAD_CAT_ID   = 20625
ELEMENT_SET_NO = 999
REV_AT_EPOCH   = 84493
BSTAR          = .19852969E-3
MEAN_MOTION_DOT = .337E-5
MEAN_MOTION_DDOT = 0

CCSDS_OMM_VERS = 2.0
CREATION_DATE  = 
ORIGINATOR     = 

OBJECT_NAME    = COSMOS 2084
OBJECT_ID      = 1990-055A
CENTER_NAME    = EARTH
REF_FRAME      = TEME
TIME_SYSTEM    = UTC
MEAN_ELEMENT_THEORY = SGP/SGP4

EPOCH          = 2026-02-13T05:07:37.753824
MEAN_MOTION    = 15.05488662
ECCENTRICITY   = .00209317
INCLINATION    = 62.7896
RA_OF_ASC_NODE = 59.0464
ARG_OF_PERICENTER = 184.7755
MEAN_ANOMALY   = 175.3149

EPHEMERIS_TYPE = 0
CLASSIFICATION_TYPE = U
NORAD_CAT_ID   = 20663
ELEMENT_SET_NO = 999
REV_AT_EPOCH   = 93263
BSTAR          = .19986015E-3
MEAN_MOTION_DOT = .2697E-4
MEAN_MOTION_DDOT = 0

CCSDS_OMM_VERS = 2.0
CREATION_DATE  = 
ORIGINATOR     = 

OBJECT_NAME    = SL-6 R/B(2)
OBJECT_ID      = 1990-055D
CENTER_NAME    = EARTH
REF_FRAME      = TEME
TIME_SYSTEM    = UTC
MEAN_ELEMENT_THEORY = SGP/SGP4

EPOCH          = 2026-02-13T05:30:42.353568
MEAN_MOTION    = 15.03469431
ECCENTRICITY   = .00210887
INCLINATION    = 62.7847
RA_OF_ASC_NODE = 337.0224
ARG_OF_PERICENTER = 340.3168
MEAN_ANOMALY   = 19.7115

EPHEMERIS_TYPE = 0
CLASSIFICATION_TYPE = U
NORAD_CAT_ID   = 20666
ELEMENT_SET_NO = 999
REV_AT_EPOCH   = 93451
BSTAR          = .21931503E-3
MEAN_MOTION_DOT = .2816E-4
MEAN_MOTION_DDOT = 0

CCSDS_OMM_VERS = 2.0
CREATION_DATE  = 
ORIGINATOR     = 

OBJECT_NAME    = SL-8 R/B
OBJECT_ID      = 1990-078B
CENTER_NAME    = EARTH
REF_FRAME      = TEME
TIME_SYSTEM    = UTC
MEAN_ELEMENT_THEORY = SGP/SGP4

EPOCH          = 2026-02-13T02:36:33.377760
MEAN_MOTION    = 14.88241385
ECCENTRICITY   = .03666361
INCLINATION    = 82.9021
RA_OF_ASC_NODE = 273.4029
ARG_OF_PERICENTER = 96.3520
MEAN_ANOMALY   = 267.9581

EPHEMERIS_TYPE = 0
CLASSIFICATION_TYPE = U
NORAD_CAT_ID   = 20775
ELEMENT_SET_NO = 999
REV_AT_EPOCH   = 80564
BSTAR          = .4424083E-3
MEAN_MOTION_DOT = .15053E-3
MEAN_MOTION_DDOT = 0

CCSDS_OMM_VERS = 2.0
CREATION_DATE  = 
ORIGINATOR     = 

OBJECT_NAME    = SL-8 R/B
OBJECT_ID      = 1991-006B
CENTER_NAME    = EARTH
REF_FRAME      = TEME
TIME_SYSTEM    = UTC
MEAN_ELEMENT_THEORY = SGP/SGP4

EPOCH          = 2026-02-12T21:01:25.631040
MEAN_MOTION    = 13.77492232
ECCENTRICITY   = .0023743
INCLINATION    = 82.9440
RA_OF_ASC_NODE = 188.4930
ARG_OF_PERICENTER = 104.3983
MEAN_ANOMALY   = 59.6620

EPHEMERIS_TYPE = 0
CLASSIFICATION_TYPE = U
NORAD_CAT_ID   = 21088
ELEMENT_SET_NO = 999
REV_AT_EPOCH   = 76065
BSTAR          = .15586E-4
MEAN_MOTION_DOT = .31E-6
MEAN_MOTION_DDOT = 0

CCSDS_OMM_VERS = 2.0
CREATION_DATE  = 
ORIGINATOR     = 

OBJECT_NAME    = OKEAN-3
OBJECT_ID      = 1991-039A
CENTER_NAME    = EARTH
REF_FRAME      = TEME
TIME_SYSTEM    = UTC
MEAN_ELEMENT_THEORY = SGP/SGP4

EPOCH          = 2026-02-13T06:33:55.441440
MEAN_MOTION    = 15.04608538
ECCENTRICITY   = .00163374
INCLINATION    = 82.5177
RA_OF_ASC_NODE = 0.4891
ARG_OF_PERICENTER = 57.2104
MEAN_ANOMALY   = 303.0694

EPHEMERIS_TYPE = 0
CLASSIFICATION_TYPE = U
NORAD_CAT_ID   = 21397
ELEMENT_SET_NO = 999
REV_AT_EPOCH   = 86136
BSTAR          = .30470787E-3
MEAN_MOTION_DOT = .4317E-4
MEAN_MOTION_DDOT = 0

CCSDS_OMM_VERS = 2.0
CREATION_DATE  = 
ORIGINATOR     = 

OBJECT_NAME    = COSMOS 2151
OBJECT_ID      = 1991-042A
CENTER_NAME    = EARTH
REF_FRAME      = TEME
TIME_SYSTEM    = UTC
MEAN_ELEMENT_THEORY = SGP/SGP4

EPOCH          = 2026-02-13T06:27:16.139520
MEAN_MOTION    = 15.00011859
ECCENTRICITY   = .00135911
INCLINATION    = 82.4957
RA_OF_ASC_NODE = 107.2348
ARG_OF_PERICENTER = 137.3299
MEAN_ANOMALY   = 222.8983

EPHEMERIS_TYPE = 0
CLASSIFICATION_TYPE = U
NORAD_CAT_ID   = 21422
ELEMENT_SET_NO = 999
REV_AT_EPOCH   = 85953
BSTAR          = .14983807E-3
MEAN_MOTION_DOT = .1893E-4
MEAN_MOTION_DDOT = 0

